sat20233
1 20233U 89074B   20046.60338622  .00000023  00000-0  66016-4 0  9998
2 20233  82.5774 230.5394 0014250 235.8439 199.4062 12.66204188405791
